[{"OBJECT_NAME":"ONEWEB-0171","OBJECT_ID":"2021-025AE","EPOCH":"2026-02-24T17:34:47.568864","MEAN_MOTION":13.13471288,"ECCENTRICITY":0.00017707,"INCLINATION":87.9037,"RA_OF_ASC_NODE":342.595,"ARG_OF_PERICENTER":82.6365,"MEAN_ANOMALY":277.4965,"EPHEMERIS_TYPE":0,"CLASSIFICATION_TYPE":"U","NORAD_CAT_ID":48070,"ELEMENT_SET_NO":999,"REV_AT_EPOCH":23885,"BSTAR":-0.00045824957,"MEAN_MOTION_DOT":-1.55e-6,"MEAN_MOTION_DDOT":0},{"OBJECT_NAME":"ONEWEB-0172","OBJECT_ID":"2021-025AF","EPOCH":"2026-02-25T04:03:43.792704","MEAN_MOTION":13.13468636,"ECCENTRICITY":0.0001875,"INCLINATION":87.9036,"RA_OF_ASC_NODE":342.4959,"ARG_OF_PERICENTER":84.4555,"MEAN_ANOMALY":275.6788,"EPHEMERIS_TYPE":0,"CLASSIFICATION_TYPE":"U","NORAD_CAT_ID":48071,"ELEMENT_SET_NO":999,"REV_AT_EPOCH":23980,"BSTAR":0.00081724,"MEAN_MOTION_DOT":3.11e-6,"MEAN_MOTION_DDOT":0},{"OBJECT_NAME":"ONEWEB-0174","OBJECT_ID":"2021-025AG","EPOCH":"2026-02-25T03:36:54.511488","MEAN_MOTION":13.13469662,"ECCENTRICITY":0.0001921,"INCLINATION":87.9036,"RA_OF_ASC_NODE":342.5005,"ARG_OF_PERICENTER":75.653,"MEAN_ANOMALY":284.4812,"EPHEMERIS_TYPE":0,"CLASSIFICATION_TYPE":"U","NORAD_CAT_ID":48072,"ELEMENT_SET_NO":999,"REV_AT_EPOCH":23912,"BSTAR":9.3794e-5,"MEAN_MOTION_DOT":4.7e-7,"MEAN_MOTION_DDOT":0},{"OBJECT_NAME":"ONEWEB-0175","OBJECT_ID":"2021-025AH","EPOCH":"2026-02-25T04:20:47.313888","MEAN_MOTION":13.13467478,"ECCENTRICITY":0.00017,"INCLINATION":87.9049,"RA_OF_ASC_NODE":342.4692,"ARG_OF_PERICENTER":90.0205,"MEAN_ANOMALY":270.1119,"EPHEMERIS_TYPE":0,"CLASSIFICATION_TYPE":"U","NORAD_CAT_ID":48073,"ELEMENT_SET_NO":999,"REV_AT_EPOCH":23878,"BSTAR":4.4192e-5,"MEAN_MOTION_DOT":2.9e-7,"MEAN_MOTION_DDOT":0},{"OBJECT_NAME":"ONEWEB-0177","OBJECT_ID":"2021-025AJ","EPOCH":"2026-02-24T12:10:34.757472","MEAN_MOTION":13.13468638,"ECCENTRICITY":0.0002011,"INCLINATION":87.9049,"RA_OF_ASC_NODE":342.6236,"ARG_OF_PERICENTER":78.2903,"MEAN_ANOMALY":281.8452,"EPHEMERIS_TYPE":0,"CLASSIFICATION_TYPE":"U","NORAD_CAT_ID":48074,"ELEMENT_SET_NO":999,"REV_AT_EPOCH":23888,"BSTAR":-0.00060541,"MEAN_MOTION_DOT":-2.08e-6,"MEAN_MOTION_DDOT":0},{"OBJECT_NAME":"ONEWEB-0178","OBJECT_ID":"2021-025AK","EPOCH":"2026-02-24T18:06:41.567328","MEAN_MOTION":13.13469948,"ECCENTRICITY":0.0001869,"INCLINATION":87.9033,"RA_OF_ASC_NODE":342.6041,"ARG_OF_PERICENTER":86.1929,"MEAN_ANOMALY":273.9413,"EPHEMERIS_TYPE":0,"CLASSIFICATION_TYPE":"U","NORAD_CAT_ID":48075,"ELEMENT_SET_NO":999,"REV_AT_EPOCH":23896,"BSTAR":-0.0011885687,"MEAN_MOTION_DOT":-4.21e-6,"MEAN_MOTION_DDOT":0},{"OBJECT_NAME":"ONEWEB-0108","OBJECT_ID":"2021-025AL","EPOCH":"2026-02-25T04:06:09.471744","MEAN_MOTION":13.13469666,"ECCENTRICITY":0.0001696,"INCLINATION":87.9045,"RA_OF_ASC_NODE":342.4807,"ARG_OF_PERICENTER":71.5242,"MEAN_ANOMALY":288.6071,"EPHEMERIS_TYPE":0,"CLASSIFICATION_TYPE":"U","NORAD_CAT_ID":48076,"ELEMENT_SET_NO":999,"REV_AT_EPOCH":23894,"BSTAR":0.00025535,"MEAN_MOTION_DOT":1.06e-6,"MEAN_MOTION_DDOT":0},{"OBJECT_NAME":"ONEWEB-0169","OBJECT_ID":"2021-025AM","EPOCH":"2026-02-24T17:54:17.115552","MEAN_MOTION":13.13468044,"ECCENTRICITY":0.00017137,"INCLINATION":87.9038,"RA_OF_ASC_NODE":342.5817,"ARG_OF_PERICENTER":71.7428,"MEAN_ANOMALY":288.3887,"EPHEMERIS_TYPE":0,"CLASSIFICATION_TYPE":"U","NORAD_CAT_ID":48077,"ELEMENT_SET_NO":999,"REV_AT_EPOCH":23754,"BSTAR":-0.00079877381,"MEAN_MOTION_DOT":-2.79e-6,"MEAN_MOTION_DDOT":0},{"OBJECT_NAME":"ONEWEB-0176","OBJECT_ID":"2021-031A","EPOCH":"2026-02-25T03:12:22.850784","MEAN_MOTION":13.14502533,"ECCENTRICITY":0.0001722,"INCLINATION":87.9012,"RA_OF_ASC_NODE":312.0511,"ARG_OF_PERICENTER":82.8869,"MEAN_ANOMALY":277.2457,"EPHEMERIS_TYPE":0,"CLASSIFICATION_TYPE":"U","NORAD_CAT_ID":48210,"ELEMENT_SET_NO":999,"REV_AT_EPOCH":23359,"BSTAR":-0.00068041,"MEAN_MOTION_DOT":-2.39e-6,"MEAN_MOTION_DDOT":0},{"OBJECT_NAME":"ONEWEB-0184","OBJECT_ID":"2021-031B","EPOCH":"2026-02-25T04:23:10.196160","MEAN_MOTION":13.14501525,"ECCENTRICITY":0.0001846,"INCLINATION":87.9017,"RA_OF_ASC_NODE":312.0314,"ARG_OF_PERICENTER":106.956,"MEAN_ANOMALY":253.1772,"EPHEMERIS_TYPE":0,"CLASSIFICATION_TYPE":"U","NORAD_CAT_ID":48211,"ELEMENT_SET_NO":999,"REV_AT_EPOCH":23357,"BSTAR":-0.00017549,"MEAN_MOTION_DOT":-5.2e-7,"MEAN_MOTION_DDOT":0},{"OBJECT_NAME":"ONEWEB-0179","OBJECT_ID":"2021-031C","EPOCH":"2026-02-25T03:40:56.224992","MEAN_MOTION":13.14501404,"ECCENTRICITY":0.0001931,"INCLINATION":87.9007,"RA_OF_ASC_NODE":312.0407,"ARG_OF_PERICENTER":75.29,"MEAN_ANOMALY":284.8443,"EPHEMERIS_TYPE":0,"CLASSIFICATION_TYPE":"U","NORAD_CAT_ID":48212,"ELEMENT_SET_NO":999,"REV_AT_EPOCH":23361,"BSTAR":0.000843,"MEAN_MOTION_DOT":3.25e-6,"MEAN_MOTION_DDOT":0},{"OBJECT_NAME":"ONEWEB-0180","OBJECT_ID":"2021-031D","EPOCH":"2026-02-25T04:27:44.279424","MEAN_MOTION":13.14501138,"ECCENTRICITY":0.0001999,"INCLINATION":87.9013,"RA_OF_ASC_NODE":312.035,"ARG_OF_PERICENTER":84.3408,"MEAN_ANOMALY":275.795,"EPHEMERIS_TYPE":0,"CLASSIFICATION_TYPE":"U","NORAD_CAT_ID":48213,"ELEMENT_SET_NO":999,"REV_AT_EPOCH":23350,"BSTAR":-0.00029576,"MEAN_MOTION_DOT":-9.7e-7,"MEAN_MOTION_DDOT":0},{"OBJECT_NAME":"ONEWEB-0218","OBJECT_ID":"2021-031E","EPOCH":"2026-02-25T03:10:06.199680","MEAN_MOTION":13.14502659,"ECCENTRICITY":0.0002129,"INCLINATION":87.9008,"RA_OF_ASC_NODE":312.045,"ARG_OF_PERICENTER":104.1627,"MEAN_ANOMALY":255.974,"EPHEMERIS_TYPE":0,"CLASSIFICATION_TYPE":"U","NORAD_CAT_ID":48214,"ELEMENT_SET_NO":999,"REV_AT_EPOCH":23365,"BSTAR":-0.0007759,"MEAN_MOTION_DOT":-2.75e-6,"MEAN_MOTION_DDOT":0},{"OBJECT_NAME":"ONEWEB-0209","OBJECT_ID":"2021-031F","EPOCH":"2026-02-25T02:54:06.382944","MEAN_MOTION":13.14500972,"ECCENTRICITY":0.0001913,"INCLINATION":87.8994,"RA_OF_ASC_NODE":312.0758,"ARG_OF_PERICENTER":78.0903,"MEAN_ANOMALY":282.0442,"EPHEMERIS_TYPE":0,"CLASSIFICATION_TYPE":"U","NORAD_CAT_ID":48215,"ELEMENT_SET_NO":999,"REV_AT_EPOCH":23365,"BSTAR":-0.00055629,"MEAN_MOTION_DOT":-1.93e-6,"MEAN_MOTION_DDOT":0},{"OBJECT_NAME":"ONEWEB-0198","OBJECT_ID":"2021-031G","EPOCH":"2026-02-25T04:21:05.126112","MEAN_MOTION":13.14501452,"ECCENTRICITY":0.0002065,"INCLINATION":87.9002,"RA_OF_ASC_NODE":312.0622,"ARG_OF_PERICENTER":87.6511,"MEAN_ANOMALY":272.4855,"EPHEMERIS_TYPE":0,"CLASSIFICATION_TYPE":"U","NORAD_CAT_ID":48216,"ELEMENT_SET_NO":999,"REV_AT_EPOCH":23377,"BSTAR":-5.7742e-5,"MEAN_MOTION_DOT":-9.0e-8,"MEAN_MOTION_DDOT":0},{"OBJECT_NAME":"ONEWEB-0189","OBJECT_ID":"2021-031H","EPOCH":"2026-02-25T02:49:32.514816","MEAN_MOTION":13.14501549,"ECCENTRICITY":0.0001962,"INCLINATION":87.9006,"RA_OF_ASC_NODE":312.0512,"ARG_OF_PERICENTER":87.1989,"MEAN_ANOMALY":272.9365,"EPHEMERIS_TYPE":0,"CLASSIFICATION_TYPE":"U","NORAD_CAT_ID":48217,"ELEMENT_SET_NO":999,"REV_AT_EPOCH":23350,"BSTAR":-0.00045962,"MEAN_MOTION_DOT":-1.58e-6,"MEAN_MOTION_DDOT":0},{"OBJECT_NAME":"ONEWEB-0196","OBJECT_ID":"2021-031J","EPOCH":"2026-02-25T04:07:11.425728","MEAN_MOTION":13.14501238,"ECCENTRICITY":0.0001821,"INCLINATION":87.9003,"RA_OF_ASC_NODE":312.0515,"ARG_OF_PERICENTER":81.2241,"MEAN_ANOMALY":278.9095,"EPHEMERIS_TYPE":0,"CLASSIFICATION_TYPE":"U","NORAD_CAT_ID":48218,"ELEMENT_SET_NO":999,"REV_AT_EPOCH":23351,"BSTAR":0.00045482,"MEAN_MOTION_DOT":1.81e-6,"MEAN_MOTION_DDOT":0}]
