ONEWEB-0171             
1 48070U 21025AE  26055.73249501 -.00000155  00000+0 -45825-3 0  9997
2 48070  87.9037 342.5950 0001770  82.6365 277.4965 13.13471288238852
ONEWEB-0172             
1 48071U 21025AF  26056.16925686  .00000311  00000+0  81724-3 0  9991
2 48071  87.9036 342.4959 0001875  84.4555 275.6788 13.13468636239809
ONEWEB-0174             
1 48072U 21025AG  26056.15063092  .00000047  00000+0  93794-4 0  9992
2 48072  87.9036 342.5005 0001921  75.6530 284.4812 13.13469662239121
ONEWEB-0175             
1 48073U 21025AH  26056.18110317  .00000029  00000+0  44192-4 0  9997
2 48073  87.9049 342.4692 0001700  90.0205 270.1119 13.13467478238788
ONEWEB-0177             
1 48074U 21025AJ  26055.50734673 -.00000208  00000+0 -60541-3 0  9996
2 48074  87.9049 342.6236 0002011  78.2903 281.8452 13.13468638238883
ONEWEB-0178             
1 48075U 21025AK  26055.75464777 -.00000421  00000+0 -11886-2 0  9993
2 48075  87.9033 342.6041 0001869  86.1929 273.9413 13.13469948238960
ONEWEB-0108             
1 48076U 21025AL  26056.17094296  .00000106  00000+0  25535-3 0  9991
2 48076  87.9045 342.4807 0001696  71.5242 288.6071 13.13469666238944
ONEWEB-0169             
1 48077U 21025AM  26055.74603143 -.00000279  00000+0 -79877-3 0  9992
2 48077  87.9038 342.5817 0001713  71.7428 288.3887 13.13468044237543
ONEWEB-0176             
1 48210U 21031A   26056.13359781 -.00000239  00000+0 -68041-3 0  9995
2 48210  87.9012 312.0511 0001722  82.8869 277.2457 13.14502533233593
ONEWEB-0184             
1 48211U 21031B   26056.18275690 -.00000052  00000+0 -17549-3 0  9997
2 48211  87.9017 312.0314 0001846 106.9560 253.1772 13.14501525233574
ONEWEB-0179             
1 48212U 21031C   26056.15342853  .00000325  00000+0  84300-3 0  9991
2 48212  87.9007 312.0407 0001931  75.2900 284.8443 13.14501404233615
ONEWEB-0180             
1 48213U 21031D   26056.18592916 -.00000097  00000+0 -29576-3 0  9994
2 48213  87.9013 312.0350 0001999  84.3408 275.7950 13.14501138233502
ONEWEB-0218             
1 48214U 21031E   26056.13201620 -.00000275  00000+0 -77590-3 0  9996
2 48214  87.9008 312.0450 0002129 104.1627 255.9740 13.14502659233650
ONEWEB-0209             
1 48215U 21031F   26056.12090721 -.00000193  00000+0 -55629-3 0  9992
2 48215  87.8994 312.0758 0001913  78.0903 282.0442 13.14500972233657
ONEWEB-0198             
1 48216U 21031G   26056.18130933 -.00000009  00000+0 -57742-4 0  9994
2 48216  87.9002 312.0622 0002065  87.6511 272.4855 13.14501452233777
ONEWEB-0189             
1 48217U 21031H   26056.11773744 -.00000158  00000+0 -45962-3 0  9996
2 48217  87.9006 312.0512 0001962  87.1989 272.9365 13.14501549233508
ONEWEB-0196             
1 48218U 21031J   26056.17166002  .00000181  00000+0  45482-3 0  9997
2 48218  87.9003 312.0515 0001821  81.2241 278.9095 13.14501238233511
